ATLAS CENTAUR 2         
1 00694U 63047A   26009.15705259  .00001597  00000+0  18076-3 0  9996
2 00694  30.3561 168.2935 0548695 275.7117  78.1199 14.11883635123203
THOR AGENA D R/B        
1 00733U 64002A   26009.28388352  .00000254  00000+0  10758-3 0  9995
2 00733  99.1221  19.3924 0033833  71.9745 288.5120 14.33979491229784
SL-3 R/B                
1 00877U 64053B   26009.08442518  .00000278  00000+0  78318-4 0  9996
2 00877  65.0768 145.9768 0076179 311.3286  48.1274 14.61301369258083
SL-8 R/B                
1 02802U 67045B   26009.26753923  .00000367  00000+0  10923-3 0  9991
2 02802  74.0116  99.0615 0063047 121.2636 239.4718 14.45569258 80432
SL-8 R/B                
1 03230U 68040B   26009.27026800  .00003826  00000+0  28701-3 0  9997
2 03230  74.0314  75.0621 0026412 272.7804  87.0362 15.02766597 81086
OAO 2                   
1 03597U 68110A   26008.97001328  .00000241  00000+0  70162-4 0  9992
2 03597  34.9920 238.6437 0004807  77.1630 282.9598 14.47264624 10441
ISIS 1                  
1 03669U 69009A   26009.14637522  .00000359  00000+0  25314-3 0  9999
2 03669  88.4515 161.7999 1707555 209.3246 140.0436 11.30373903341809
SERT 2                  
1 04327U 70009A   26009.28741969  .00000043  00000+0  11549-3 0  9994
2 04327  99.2685 315.6553 0004471 326.2512 162.3196 13.58722310771827
SL-3 R/B                
1 05118U 71028B   26009.14647828  .00034476  00000+0  48184-3 0  9991
2 05118  81.2379 125.3048 0018308 142.3459 217.9078 15.56472661979392
ASTEX 1                 
1 05560U 71089A   26009.29641361  .00000713  00000+0  18164-3 0  9993
2 05560  92.7155 132.5380 0013463 287.5873  72.3862 14.50685267853699
SL-8 R/B                
1 05730U 71119B   26009.20295106  .00009382  00000+0  48737-3 0  9999
2 05730  73.8889 286.7864 0556812 265.5296  88.2079 14.36409969646947
OAO 3 (COPERNICUS)      
1 06153U 72065A   26009.18254897  .00000450  00000+0  96880-4 0  9999
2 06153  35.0057 276.3375 0006187  28.3553  98.8520 14.59937747837497
