CCSDS_OMM_VERS = 2.0
CREATION_DATE  = 
ORIGINATOR     = 

OBJECT_NAME    = ATLAS CENTAUR 2
OBJECT_ID      = 1963-047A
CENTER_NAME    = EARTH
REF_FRAME      = TEME
TIME_SYSTEM    = UTC
MEAN_ELEMENT_THEORY = SGP/SGP4

EPOCH          = 2026-01-09T03:46:09.343776
MEAN_MOTION    = 14.11883635
ECCENTRICITY   = .05486957
INCLINATION    = 30.3561
RA_OF_ASC_NODE = 168.2935
ARG_OF_PERICENTER = 275.7117
MEAN_ANOMALY   = 78.1199

EPHEMERIS_TYPE = 0
CLASSIFICATION_TYPE = U
NORAD_CAT_ID   = 694
ELEMENT_SET_NO = 999
REV_AT_EPOCH   = 12320
BSTAR          = .18076363E-3
MEAN_MOTION_DOT = .1597E-4
MEAN_MOTION_DDOT = 0

CCSDS_OMM_VERS = 2.0
CREATION_DATE  = 
ORIGINATOR     = 

OBJECT_NAME    = THOR AGENA D R/B
OBJECT_ID      = 1964-002A
CENTER_NAME    = EARTH
REF_FRAME      = TEME
TIME_SYSTEM    = UTC
MEAN_ELEMENT_THEORY = SGP/SGP4

EPOCH          = 2026-01-09T06:48:47.536128
MEAN_MOTION    = 14.33979491
ECCENTRICITY   = .00338339
INCLINATION    = 99.1221
RA_OF_ASC_NODE = 19.3924
ARG_OF_PERICENTER = 71.9745
MEAN_ANOMALY   = 288.5120

EPHEMERIS_TYPE = 0
CLASSIFICATION_TYPE = U
NORAD_CAT_ID   = 733
ELEMENT_SET_NO = 999
REV_AT_EPOCH   = 22978
BSTAR          = .10758274E-3
MEAN_MOTION_DOT = .254E-5
MEAN_MOTION_DDOT = 0

CCSDS_OMM_VERS = 2.0
CREATION_DATE  = 
ORIGINATOR     = 

OBJECT_NAME    = SL-3 R/B
OBJECT_ID      = 1964-053B
CENTER_NAME    = EARTH
REF_FRAME      = TEME
TIME_SYSTEM    = UTC
MEAN_ELEMENT_THEORY = SGP/SGP4

EPOCH          = 2026-01-09T02:01:34.335552
MEAN_MOTION    = 14.61301369
ECCENTRICITY   = .00761799
INCLINATION    = 65.0768
RA_OF_ASC_NODE = 145.9768
ARG_OF_PERICENTER = 311.3286
MEAN_ANOMALY   = 48.1274

EPHEMERIS_TYPE = 0
CLASSIFICATION_TYPE = U
NORAD_CAT_ID   = 877
ELEMENT_SET_NO = 999
REV_AT_EPOCH   = 25808
BSTAR          = .78317983E-4
MEAN_MOTION_DOT = .278E-5
MEAN_MOTION_DDOT = 0

CCSDS_OMM_VERS = 2.0
CREATION_DATE  = 
ORIGINATOR     = 

OBJECT_NAME    = SL-8 R/B
OBJECT_ID      = 1967-045B
CENTER_NAME    = EARTH
REF_FRAME      = TEME
TIME_SYSTEM    = UTC
MEAN_ELEMENT_THEORY = SGP/SGP4

EPOCH          = 2026-01-09T06:25:15.389472
MEAN_MOTION    = 14.45569258
ECCENTRICITY   = .00630471
INCLINATION    = 74.0116
RA_OF_ASC_NODE = 99.0615
ARG_OF_PERICENTER = 121.2636
MEAN_ANOMALY   = 239.4718

EPHEMERIS_TYPE = 0
CLASSIFICATION_TYPE = U
NORAD_CAT_ID   = 2802
ELEMENT_SET_NO = 999
REV_AT_EPOCH   = 8043
BSTAR          = .10922719E-3
MEAN_MOTION_DOT = .367E-5
MEAN_MOTION_DDOT = 0

CCSDS_OMM_VERS = 2.0
CREATION_DATE  = 
ORIGINATOR     = 

OBJECT_NAME    = SL-8 R/B
OBJECT_ID      = 1968-040B
CENTER_NAME    = EARTH
REF_FRAME      = TEME
TIME_SYSTEM    = UTC
MEAN_ELEMENT_THEORY = SGP/SGP4

EPOCH          = 2026-01-09T06:29:11.155200
MEAN_MOTION    = 15.02766597
ECCENTRICITY   = .00264125
INCLINATION    = 74.0314
RA_OF_ASC_NODE = 75.0621
ARG_OF_PERICENTER = 272.7804
MEAN_ANOMALY   = 87.0362

EPHEMERIS_TYPE = 0
CLASSIFICATION_TYPE = U
NORAD_CAT_ID   = 3230
ELEMENT_SET_NO = 999
REV_AT_EPOCH   = 8108
BSTAR          = .28701422E-3
MEAN_MOTION_DOT = .3826E-4
MEAN_MOTION_DDOT = 0

CCSDS_OMM_VERS = 2.0
CREATION_DATE  = 
ORIGINATOR     = 

OBJECT_NAME    = OAO 2
OBJECT_ID      = 1968-110A
CENTER_NAME    = EARTH
REF_FRAME      = TEME
TIME_SYSTEM    = UTC
MEAN_ELEMENT_THEORY = SGP/SGP4

EPOCH          = 2026-01-08T23:16:49.147392
MEAN_MOTION    = 14.47264624
ECCENTRICITY   = .00048078
INCLINATION    = 34.9920
RA_OF_ASC_NODE = 238.6437
ARG_OF_PERICENTER = 77.1630
MEAN_ANOMALY   = 282.9598

EPHEMERIS_TYPE = 0
CLASSIFICATION_TYPE = U
NORAD_CAT_ID   = 3597
ELEMENT_SET_NO = 999
REV_AT_EPOCH   = 1044
BSTAR          = .70162134E-4
MEAN_MOTION_DOT = .241E-5
MEAN_MOTION_DDOT = 0

CCSDS_OMM_VERS = 2.0
CREATION_DATE  = 
ORIGINATOR     = 

OBJECT_NAME    = ISIS 1
OBJECT_ID      = 1969-009A
CENTER_NAME    = EARTH
REF_FRAME      = TEME
TIME_SYSTEM    = UTC
MEAN_ELEMENT_THEORY = SGP/SGP4

EPOCH          = 2026-01-09T03:30:46.819008
MEAN_MOTION    = 11.30373903
ECCENTRICITY   = .17075557
INCLINATION    = 88.4515
RA_OF_ASC_NODE = 161.7999
ARG_OF_PERICENTER = 209.3246
MEAN_ANOMALY   = 140.0436

EPHEMERIS_TYPE = 0
CLASSIFICATION_TYPE = U
NORAD_CAT_ID   = 3669
ELEMENT_SET_NO = 999
REV_AT_EPOCH   = 34180
BSTAR          = .25314439E-3
MEAN_MOTION_DOT = .359E-5
MEAN_MOTION_DDOT = 0

CCSDS_OMM_VERS = 2.0
CREATION_DATE  = 
ORIGINATOR     = 

OBJECT_NAME    = SERT 2
OBJECT_ID      = 1970-009A
CENTER_NAME    = EARTH
REF_FRAME      = TEME
TIME_SYSTEM    = UTC
MEAN_ELEMENT_THEORY = SGP/SGP4

EPOCH          = 2026-01-09T06:53:53.061216
MEAN_MOTION    = 13.58722310
ECCENTRICITY   = .0004471
INCLINATION    = 99.2685
RA_OF_ASC_NODE = 315.6553
ARG_OF_PERICENTER = 326.2512
MEAN_ANOMALY   = 162.3196

EPHEMERIS_TYPE = 0
CLASSIFICATION_TYPE = U
NORAD_CAT_ID   = 4327
ELEMENT_SET_NO = 999
REV_AT_EPOCH   = 77182
BSTAR          = .11549204E-3
MEAN_MOTION_DOT = .43E-6
MEAN_MOTION_DDOT = 0

CCSDS_OMM_VERS = 2.0
CREATION_DATE  = 
ORIGINATOR     = 

OBJECT_NAME    = SL-3 R/B
OBJECT_ID      = 1971-028B
CENTER_NAME    = EARTH
REF_FRAME      = TEME
TIME_SYSTEM    = UTC
MEAN_ELEMENT_THEORY = SGP/SGP4

EPOCH          = 2026-01-09T03:30:55.723392
MEAN_MOTION    = 15.56472661
ECCENTRICITY   = .00183088
INCLINATION    = 81.2379
RA_OF_ASC_NODE = 125.3048
ARG_OF_PERICENTER = 142.3459
MEAN_ANOMALY   = 217.9078

EPHEMERIS_TYPE = 0
CLASSIFICATION_TYPE = U
NORAD_CAT_ID   = 5118
ELEMENT_SET_NO = 999
REV_AT_EPOCH   = 97939
BSTAR          = .48184417E-3
MEAN_MOTION_DOT = .34476E-3
MEAN_MOTION_DDOT = 0

CCSDS_OMM_VERS = 2.0
CREATION_DATE  = 
ORIGINATOR     = 

OBJECT_NAME    = ASTEX 1
OBJECT_ID      = 1971-089A
CENTER_NAME    = EARTH
REF_FRAME      = TEME
TIME_SYSTEM    = UTC
MEAN_ELEMENT_THEORY = SGP/SGP4

EPOCH          = 2026-01-09T07:06:50.135904
MEAN_MOTION    = 14.50685267
ECCENTRICITY   = .00134635
INCLINATION    = 92.7155
RA_OF_ASC_NODE = 132.5380
ARG_OF_PERICENTER = 287.5873
MEAN_ANOMALY   = 72.3862

EPHEMERIS_TYPE = 0
CLASSIFICATION_TYPE = U
NORAD_CAT_ID   = 5560
ELEMENT_SET_NO = 999
REV_AT_EPOCH   = 85369
BSTAR          = .18163841E-3
MEAN_MOTION_DOT = .713E-5
MEAN_MOTION_DDOT = 0

CCSDS_OMM_VERS = 2.0
CREATION_DATE  = 
ORIGINATOR     = 

OBJECT_NAME    = SL-8 R/B
OBJECT_ID      = 1971-119B
CENTER_NAME    = EARTH
REF_FRAME      = TEME
TIME_SYSTEM    = UTC
MEAN_ELEMENT_THEORY = SGP/SGP4

EPOCH          = 2026-01-09T04:52:14.971584
MEAN_MOTION    = 14.36409969
ECCENTRICITY   = .05568122
INCLINATION    = 73.8889
RA_OF_ASC_NODE = 286.7864
ARG_OF_PERICENTER = 265.5296
MEAN_ANOMALY   = 88.2079

EPHEMERIS_TYPE = 0
CLASSIFICATION_TYPE = U
NORAD_CAT_ID   = 5730
ELEMENT_SET_NO = 999
REV_AT_EPOCH   = 64694
BSTAR          = .48736508E-3
MEAN_MOTION_DOT = .9382E-4
MEAN_MOTION_DDOT = 0

CCSDS_OMM_VERS = 2.0
CREATION_DATE  = 
ORIGINATOR     = 

OBJECT_NAME    = OAO 3 (COPERNICUS)
OBJECT_ID      = 1972-065A
CENTER_NAME    = EARTH
REF_FRAME      = TEME
TIME_SYSTEM    = UTC
MEAN_ELEMENT_THEORY = SGP/SGP4

EPOCH          = 2026-01-09T04:22:52.231008
MEAN_MOTION    = 14.59937747
ECCENTRICITY   = .00061873
INCLINATION    = 35.0057
RA_OF_ASC_NODE = 276.3375
ARG_OF_PERICENTER = 28.3553
MEAN_ANOMALY   = 98.8520

EPHEMERIS_TYPE = 0
CLASSIFICATION_TYPE = U
NORAD_CAT_ID   = 6153
ELEMENT_SET_NO = 999
REV_AT_EPOCH   = 83749
BSTAR          = .96880208E-4
MEAN_MOTION_DOT = .45E-5
MEAN_MOTION_DDOT = 0

